{
    "links": {
        "self": "http://www.neowsapp.com/rest/v1/neo/3645498?api_key=iIulBulltgU6a56xZRHN4H3l9WmuAYTsLGpBGhQ2"
    },
    "id": "3645498",
    "neo_reference_id": "3645498",
    "name": "(2013 PE21)",
    "designation": "2013 PE21",
    "nasa_jpl_url": "http://ssd.jpl.nasa.gov/sbdb.cgi?sstr=3645498",
    "absolute_magnitude_h": 24.6,
    "estimated_diameter": {
        "kilometers": {
            "estimated_diameter_min": 0.0319561887,
            "estimated_diameter_max": 0.0714562102
        },
        "meters": {
            "estimated_diameter_min": 31.9561886721,
            "estimated_diameter_max": 71.4562101727
        },
        "miles": {
            "estimated_diameter_min": 0.0198566489,
            "estimated_diameter_max": 0.0444008168
        },
        "feet": {
            "estimated_diameter_min": 104.8431420431,
            "estimated_diameter_max": 234.436392583
        }
    },
    "is_potentially_hazardous_asteroid": false,
    "close_approach_data": [
        {
            "close_approach_date": "2010-06-27",
            "close_approach_date_full": "2010-Jun-27 15:13",
            "epoch_date_close_approach": 1277651580000,
            "relative_velocity": {
                "kilometers_per_second": "9.4811818667",
                "kilometers_per_hour": "34132.2547200117",
                "miles_per_hour": "21208.4557175539"
            },
            "miss_distance": {
                "astronomical": "0.0745652416",
                "lunar": "29.0058789824",
                "kilometers": "11154801.319395392",
                "miles": "6931272.1325127296"
            },
            "orbiting_body": "Mars"
        },
        {
            "close_approach_date": "2013-08-01",
            "close_approach_date_full": "2013-Aug-01 17:11",
            "epoch_date_close_approach": 1375377060000,
            "relative_velocity": {
                "kilometers_per_second": "7.3251140843",
                "kilometers_per_hour": "26370.4107033299",
                "miles_per_hour": "16385.5476950774"
            },
            "miss_distance": {
                "astronomical": "0.0253796335",
                "lunar": "9.8726774315",
                "kilometers": "3796739.112980645",
                "miles": "2359184.287977101"
            },
            "orbiting_body": "Earth"
        }
    ],
    "orbital_data": {
        "orbit_id": "7",
        "orbit_determination_date": "2017-04-06 08:45:10",
        "first_observation_date": "2013-08-09",
        "last_observation_date": "2013-08-26",
        "data_arc_in_days": 17,
        "observations_used": 38,
        "orbit_uncertainty": "8",
        "minimum_orbit_intersection": ".0247695",
        "jupiter_tisserand_invariant": "3.738",
        "epoch_osculation": "2456516.5",
        "eccentricity": ".4773733037636397",
        "semi_major_axis": "1.952981695291444",
        "inclination": "4.111792900424329",
        "ascending_node_longitude": "142.9142996814606",
        "orbital_period": "996.8864341494552",
        "perihelion_distance": "1.020680371220254",
        "perihelion_argument": "150.6108059963269",
        "aphelion_distance": "2.885283019362635",
        "perihelion_time": "2456492.624075561712",
        "mean_anomaly": "8.622178518375796",
        "mean_motion": ".3611243845515387",
        "equinox": "J2000",
        "orbit_class": {
            "orbit_class_type": "AMO",
            "orbit_class_description": "Near-Earth asteroid orbits similar to that of 1221 Amor",
            "orbit_class_range": "1.017 AU < q (perihelion) < 1.3 AU"
        }
    },
    "is_sentry_object": false
}